0 METEOR 1-20
1 07574U 74099A   13282.30107264  .00000037  00000-0  13278-4 0  7691
2 07574 081.2341 166.3399 0017398 125.8530 011.3359 14.11191265997034
0 METEOR 1-20
1 07574U 74099A   13283.77134971  .00000029  00000-0  91970-5 0  7707
2 07574 081.2340 164.9048 0017348 121.9763 280.4758 14.11191162997249
0 METEOR 1-20
1 07574U 74099A   13286.19607911  .00000027  00000-0  79091-5 0  7725
2 07574 081.2334 162.5380 0017272 115.5416 358.3611 14.11191027997585
0 METEOR 1-20
1 07574U 74099A   13287.26286606  .00000018  00000-0  27405-5 0  7731
2 07574 081.2331 161.4966 0017256 112.7003 017.7627 14.11191059997738
0 METEOR 1-20
1 07574U 74099A   13288.59640779  .00000008  00000-0 -26039-5 0  7746
2 07574 081.2327 160.1949 0017192 109.2691 312.1892 14.11191283997929
0 METEOR 1-20
1 07574U 74099A   13289.65101362 -.00000020  00000-0 -18325-4 0  7758
2 07574 081.2324 159.1654 0017190 106.4913 269.6785 14.11191463998075
0 METEOR 1-20
1 07574U 74099A   13290.72349271 -.00000027  00000-0 -22310-4 0  7768
2 07574 081.2322 158.1184 0017193 103.6476 317.9859 14.11191651998221
0 METEOR 1-20
1 07574U 74099A   13291.78900500 -.00000029  00000-0 -23139-4 0  7776
2 07574 081.2321 157.0782 0017209 100.8279 330.8964 14.11191681998370
0 METEOR 1-20
1 07574U 74099A   13293.15143752 -.00000016  00000-0 -16077-4 0  7787
2 07574 081.2319 155.7480 0017239 097.2678 052.1468 14.11191652998564
0 METEOR 1-20
1 07574U 74099A   13294.47864016  .00000005  00000-0 -41207-5 0  7798
2 07574 081.2317 154.4521 0017247 093.7946 314.4331 14.11191510998759
0 METEOR 1-20
1 07574U 74099A   13295.75976128  .00000036  00000-0  13147-4 0  7804
2 07574 081.2317 153.2012 0017277 090.5125 342.5512 14.11191187998931
